     2.100          NAVIGATION                              RINEX VERSION / TYPE
fic2rin                                 02/27/2009 01:18:18 PGM / RUN BY / DATE
                                                            END OF HEADER
15 09  2 26 16  0  0.0 -.261961948127D-03 -.511590769747D-11  .000000000000D+00
     .600000000000D+01 -.348750000000D+02  .417660254369D-08 -.805039123054D-01
    -.179931521416D-05  .142510689329D-02  .128708779812D-04  .515359216309D+04
     .403200000000D+06  .428408384323D-07 -.297048907332D+01 -.856816768646D-07
     .957199641904D+00  .130750000000D+03 -.661699656435D+00 -.788032824730D-08
    -.276797244002D-09  .100000000000D+01  .152000000000D+04  .000000000000D+00
     .240000000000D+01  .000000000000D+00 -.977888703346D-08  .600000000000D+01
     .396006000000D+06  .400000000000D+01
16 09  2 26 16  0  0.0  .717006623745D-04 -.295585778076D-11  .000000000000D+00
     .640000000000D+02 -.653437500000D+02  .466983737461D-08  .132238332212D+01
    -.338070094585D-05  .512546824757D-02  .414438545704D-05  .515377057838D+04
     .403200000000D+06  .577419996262D-07 -.841047195552D+00 -.745058059692D-08
     .967590282351D+00  .301312500000D+03 -.386830544862D+00 -.833391856973D-08
    -.339299847486D-09  .100000000000D+01  .152000000000D+04  .000000000000D+00
     .240000000000D+01  .000000000000D+00 -.977888703346D-08  .640000000000D+02
     .396006000000D+06  .400000000000D+01
17 09  2 26 16  0  0.0  .483081676066D-04  .125055521494D-11  .000000000000D+00
     .590000000000D+02 -.223750000000D+02  .438946855327D-08  .231982167126D+00
    -.118836760521D-05  .427338900045D-02  .130962580442D-04  .515365521622D+04
     .403200000000D+06  .260770320892D-07  .200709810609D+00  .335276126862D-07
     .960221631279D+00  .127000000000D+03 -.272757723017D+01 -.793497338063D-08
    -.132505519387D-09  .100000000000D+01  .152000000000D+04  .000000000000D+00
     .240000000000D+01  .000000000000D+00 -.102445483208D-07  .590000000000D+02
     .396006000000D+06  .400000000000D+01
19 09  2 26 16  0  0.0  .317026861012D-04 -.682121026330D-12  .000000000000D+00
     .420000000000D+02 -.643750000000D+01  .443054169270D-08 -.494727823491D+00
    -.471249222755D-06  .526849261951D-02  .127330422401D-04  .515357530785D+04
     .403200000000D+06  .409781932831D-07  .256994861028D+00 -.894069671631D-07
     .957943288514D+00  .132468750000D+03 -.382069764705D+00 -.794675958586D-08
    -.642883921553D-11  .100000000000D+01  .152000000000D+04  .000000000000D+00
     .240000000000D+01  .000000000000D+00 -.149011611938D-07  .420000000000D+02
     .396006000000D+06  .400000000000D+01
20 09  2 26 16  0  0.0  .896737910807D-04 -.113686837722D-11  .000000000000D+00
     .105000000000D+03 -.559687500000D+02  .528200573103D-08  .160705499716D+01
    -.307522714138D-05  .400115014054D-02  .420585274696D-05  .515366281319D+04
     .403200000000D+06 -.838190317154D-07  .225701418303D+01 -.894069671631D-07
     .942995115509D+00  .287750000000D+03  .131931073479D+01 -.861750181068D-08
    -.430375069706D-09  .100000000000D+01  .152000000000D+04  .000000000000D+00
     .240000000000D+01  .000000000000D+00 -.651925802231D-08  .105000000000D+03
     .396006000000D+06  .400000000000D+01
21 09  2 26 16  0  0.0  .271275639534D-04 -.193267624127D-11  .000000000000D+00
     .390000000000D+02  .853750000000D+02  .530986403429D-08  .274093094975D+01
     .427849590778D-05  .147246478591D-01  .691227614880D-05  .515364006996D+04
     .403200000000D+06 -.173225998878D-06  .125179805290D+01 -.210478901863D-06
     .934312772780D+00  .233781250000D+03 -.264256510467D+01 -.831963226036D-08
     .462162108050D-09  .100000000000D+01  .152000000000D+04  .000000000000D+00
     .240000000000D+01  .000000000000D+00 -.116415321827D-07  .390000000000D+02
     .396006000000D+06  .400000000000D+01
22 09  2 26 16  0  0.0  .204428564757D-03 -.454747350886D-12  .000000000000D+00
     .940000000000D+02 -.597500000000D+02  .538843873582D-08  .350641165612D+00
    -.300817191601D-05  .486466498114D-02  .420212745667D-05  .515366135025D+04
     .403200000000D+06 -.167638063431D-07  .231669428302D+01 -.186264514923D-08
     .941089483309D+00  .289406250000D+03 -.183269676030D+01 -.877143679412D-08
    -.446804325479D-09  .100000000000D+01  .152000000000D+04  .000000000000D+00
     .485000000000D+01  .000000000000D+00 -.181607902050D-07  .940000000000D+02
     .396006000000D+06  .400000000000D+01
23 09  2 26 16  0  0.0  .387602485716D-03  .568434188608D-12  .000000000000D+00
     .260000000000D+02 -.690625000000D+01  .389873382648D-08 -.102507646166D+01
    -.571832060814D-06  .581255799625D-02  .127051025629D-04  .515364301491D+04
     .403200000000D+06 -.614672899246D-07 -.295179929861D+01 -.132247805595D-06
     .971120195420D+00  .140687500000D+03  .287996913146D+01 -.767781981201D-08
    -.146434671020D-09  .100000000000D+01  .152000000000D+04  .000000000000D+00
     .240000000000D+01  .000000000000D+00 -.200234353542D-07  .260000000000D+02
     .396006000000D+06  .400000000000D+01
24 09  2 26 16  0  0.0  .168699771166D-03  .306954461848D-11  .000000000000D+00
     .940000000000D+02  .760312500000D+02  .504556731099D-08  .136516916868D+01
     .398606061935D-05  .689165736549D-02  .640004873276D-05  .515367006493D+04
     .403200000000D+06  .121071934700D-06  .128242899299D+01  .000000000000D+00
     .950925607583D+00  .248656250000D+03 -.640467986954D+00 -.835749098019D-08
     .384658879729D-09  .100000000000D+01  .152000000000D+04  .000000000000D+00
     .240000000000D+01  .000000000000D+00 -.139698386192D-08  .940000000000D+02
     .396006000000D+06  .400000000000D+01
25 09  2 26 16  0  0.0  .267298892140D-03  .237605490838D-10  .000000000000D+00
     .980000000000D+02  .905625000000D+02  .432339437244D-08  .187587974524D+01
     .461563467979D-05  .117564622778D-01  .719912350178D-05  .515366533852D+04
     .403200000000D+06  .277534127235D-06 -.200457379852D+01  .391155481339D-07
     .968344814534D+00  .242937500000D+03 -.122123062248D+01 -.793104464556D-08
     .546451333320D-09  .100000000000D+01  .152000000000D+04  .000000000000D+00
     .340000000000D+01  .000000000000D+00 -.745058059692D-08  .980000000000D+02
     .396006000000D+06  .400000000000D+01
26 09  2 26 16  0  0.0  .473796389997D-04  .261479726760D-11  .000000000000D+00
     .910000000000D+02 -.971875000000D+01  .338835542432D-08 -.147036088419D+01
    -.486150383949D-06  .196729273302D-01  .129882246256D-04  .515364763260D+04
     .403200000000D+06  .491738319397D-06 -.290413044654D+01  .540167093277D-07
     .993405650144D+00  .141468750000D+03  .970530526789D+00 -.733387691398D-08
    -.150363406097D-09  .100000000000D+01  .152000000000D+04  .000000000000D+00
     .340000000000D+01  .000000000000D+00 -.651925802231D-08  .910000000000D+02
     .396006000000D+06  .400000000000D+01
27 09  2 26 16  0  0.0  .278670340776D-04  .306954461848D-11  .000000000000D+00
     .940000000000D+02  .733437500000D+02  .440625496678D-08  .714448789968D+00
     .381842255592D-05  .210160537390D-01  .800937414169D-05  .515515415192D+04
     .403200000000D+06 -.234693288803D-06 -.196859963500D+01 -.143423676491D-06
     .972987215360D+00  .238093750000D+03 -.164031273832D+01 -.843570852398D-08
     .413588656199D-09  .100000000000D+01  .152000000000D+04  .000000000000D+00
     .240000000000D+01  .000000000000D+00 -.419095158577D-08  .940000000000D+02
     .396006000000D+06  .400000000000D+01
28 09  2 26 16  0  0.0 -.236048363149D-04  .000000000000D+00  .000000000000D+00
     .800000000000D+01 -.604687500000D+02  .488627496154D-08  .669663943380D+00
    -.315159559250D-05  .147487546783D-01  .477954745293D-05  .515363515091D+04
     .403200000000D+06 -.204890966415D-06 -.832734953542D+00  .745058059692D-07
     .965785721698D+00  .292218750000D+03 -.204787895321D+01 -.861857328389D-08
    -.417874549009D-09  .100000000000D+01  .152000000000D+04  .000000000000D+00
     .240000000000D+01  .000000000000D+00 -.107102096081D-07  .800000000000D+01
     .396006000000D+06  .400000000000D+01
29 09  2 26 16  0  0.0 -.647222623229D-05  .352429196937D-11  .000000000000D+00
     .810000000000D+02 -.335000000000D+02  .433518057767D-08  .278443169659D+01
    -.188872218132D-05  .329682882875D-02  .127255916595D-04  .515373890495D+04
     .403200000000D+06  .614672899246D-07  .208893745926D+00  .372529029846D-08
     .960415181193D+00  .134156250000D+03 -.134522495635D+01 -.781603985515D-08
    -.860750139413D-10  .100000000000D+01  .152000000000D+04  .000000000000D+00
     .240000000000D+01  .000000000000D+00 -.884756445885D-08  .810000000000D+02
     .396006000000D+06  .400000000000D+01
30 09  2 26 16  0  0.0  .128892716020D-03  .238742359215D-11  .000000000000D+00
     .840000000000D+02 -.520000000000D+02  .522986070183D-08  .111092260261D+01
    -.285357236862D-05  .111816583667D-01  .344216823578D-05  .515363061714D+04
     .403200000000D+06 -.180676579475D-06 -.904172243798D+00 -.633299350739D-07
     .951023413897D+00  .308343750000D+03  .141394915238D+01 -.877965142201D-08
    -.205365697163D-09  .100000000000D+01  .152000000000D+04  .000000000000D+00
     .340000000000D+01  .000000000000D+00 -.791624188423D-08  .840000000000D+02
     .396006000000D+06  .400000000000D+01
31 09  2 26 16  0  0.0 -.529503449798D-04 -.136424205266D-11  .000000000000D+00
     .430000000000D+02  .834375000000D+02  .436125309227D-08 -.270251147477D+01
     .438094139099D-05  .720228313003D-02  .639818608761D-05  .515365319443D+04
     .403200000000D+06  .447034835815D-07 -.191243305023D+01  .689178705215D-07
     .971362532188D+00  .261468750000D+03 -.117920563229D+01 -.801783397497D-08
     .528236288876D-09  .100000000000D+01  .152000000000D+04  .000000000000D+00
     .240000000000D+01  .000000000000D+00 -.130385160446D-07  .430000000000D+02
     .396006000000D+06  .400000000000D+01
